start=new Date('2022-06-05T00:00:00.000Z').valueOf();
sats=[{"SITE":"AFETR","RCS_SIZE":"LARGE","COUNTRY_CODE":"US","FILE":"3481313","TLE_LINE2":"2 45370  53.0542 213.8337 0001691  63.4781 296.6381 15.06399423122678","OBJECT_TYPE":"PAYLOAD","RA_OF_ASC_NODE":"213.8337","REV_AT_EPOCH":"12267","ELEMENT_SET_NO":"999","PERIOD":"95.592","MEAN_MOTION":"15.06399423","MEAN_MOTION_DDOT":"0.0000000000000","OBJECT_NAME":"STARLINK-1281","EPHEMERIS_TYPE":"0","MEAN_MOTION_DOT":"-0.00000477","TIME_SYSTEM":"UTC","NORAD_CAT_ID":"45370","REF_FRAME":"TEME","GP_ID":"205384078","OBJECT_ID":"2020-019L","MEAN_ANOMALY":"296.6381","CLASSIFICATION_TYPE":"U","APOAPSIS":"548.386","MEAN_ELEMENT_THEORY":"SGP4","ECCENTRICITY":"0.00016910","ARG_OF_PERICENTER":"63.4781","INCLINATION":"53.0542","LAUNCH_DATE":"2020-03-18","BSTAR":"-0.00001315300000","PERIAPSIS":"546.044","SEMIMAJOR_AXIS":"6925.350","CENTER_NAME":"EARTH","DECAY_DATE":null,"EPOCH":"2022-06-04T21:28:09.586560","TLE_LINE1":"1 45370U 20019L   22155.89455540 -.00000477  00000-0 -13153-4 0  9993"},{"BSTAR":"0.00135750000000","LAUNCH_DATE":"2020-03-18","PERIAPSIS":"545.070","MEAN_ELEMENT_THEORY":"SGP4","INCLINATION":"53.0561","ARG_OF_PERICENTER":"62.2274","ECCENTRICITY":"0.00015960","TLE_LINE1":"1 45371U 20019M   22155.85694832  .00020182  00000-0  13575-2 0  9998","CENTER_NAME":"EARTH","SEMIMAJOR_AXIS":"6924.310","EPOCH":"2022-06-04T20:34:00.334848","DECAY_DATE":null,"REF_FRAME":"TEME","GP_ID":"205361044","CLASSIFICATION_TYPE":"U","MEAN_ANOMALY":"297.8877","APOAPSIS":"547.280","OBJECT_ID":"2020-019M","PERIOD":"95.571","OBJECT_NAME":"STARLINK-1287","MEAN_MOTION_DDOT":"0.0000000000000","MEAN_MOTION":"15.06738934","ELEMENT_SET_NO":"999","REV_AT_EPOCH":"12266","TIME_SYSTEM":"UTC","NORAD_CAT_ID":"45371","MEAN_MOTION_DOT":"0.00020182","EPHEMERIS_TYPE":"0","RCS_SIZE":"LARGE","SITE":"AFETR","RA_OF_ASC_NODE":"213.9913","TLE_LINE2":"2 45371  53.0561 213.9913 0001596  62.2274 297.8877 15.06738934122665","OBJECT_TYPE":"PAYLOAD","FILE":"3481168","COUNTRY_CODE":"US"},{"OBJECT_ID":"2020-019N","APOAPSIS":"548.383","MEAN_ANOMALY":"300.1660","CLASSIFICATION_TYPE":"U","GP_ID":"205382579","REF_FRAME":"TEME","DECAY_DATE":null,"EPOCH":"2022-06-04T20:56:18.282048","SEMIMAJOR_AXIS":"6925.332","CENTER_NAME":"EARTH","TLE_LINE1":"1 45372U 20019N   22155.87243382 -.00000074  00000-0  13910-4 0  9995","ECCENTRICITY":"0.00017120","INCLINATION":"53.0541","ARG_OF_PERICENTER":"59.9499","MEAN_ELEMENT_THEORY":"SGP4","PERIAPSIS":"546.011","LAUNCH_DATE":"2020-03-18","BSTAR":"0.00001391000000","COUNTRY_CODE":"US","FILE":"3481313","OBJECT_TYPE":"PAYLOAD","TLE_LINE2":"2 45372  53.0541 213.9326 0001712  59.9499 300.1660 15.06405434122668","RA_OF_ASC_NODE":"213.9326","SITE":"AFETR","RCS_SIZE":"LARGE","EPHEMERIS_TYPE":"0","MEAN_MOTION_DOT":"-0.00000074","NORAD_CAT_ID":"45372","TIME_SYSTEM":"UTC","REV_AT_EPOCH":"12266","ELEMENT_SET_NO":"999","OBJECT_NAME":"STARLINK-1288","PERIOD":"95.592","MEAN_MOTION_DDOT":"0.0000000000000","MEAN_MOTION":"15.06405434"},{"RA_OF_ASC_NODE":"214.0009","FILE":"3481313","COUNTRY_CODE":"US","OBJECT_TYPE":"PAYLOAD","TLE_LINE2":"2 45373  53.0545 214.0009 0001342  63.7832 296.3295 15.06400419122664","RCS_SIZE":"LARGE","SITE":"AFETR","NORAD_CAT_ID":"45373","TIME_SYSTEM":"UTC","EPHEMERIS_TYPE":"0","MEAN_MOTION_DOT":"-0.00001887","MEAN_MOTION_DDOT":"0.0000000000000","PERIOD":"95.592","MEAN_MOTION":"15.06400419","OBJECT_NAME":"STARLINK-1295","REV_AT_EPOCH":"12266","ELEMENT_SET_NO":"999","APOAPSIS":"548.142","MEAN_ANOMALY":"296.3295","CLASSIFICATION_TYPE":"U","OBJECT_ID":"2020-019P","GP_ID":"205383330","REF_FRAME":"TEME","TLE_LINE1":"1 45373U 20019P   22155.85401476 -.00001887  00000-0 -10779-3 0  9997","DECAY_DATE":null,"EPOCH":"2022-06-04T20:29:46.875264","SEMIMAJOR_AXIS":"6925.347","CENTER_NAME":"EARTH","PERIAPSIS":"546.283","LAUNCH_DATE":"2020-03-18","BSTAR":"-0.00010779000000","ECCENTRICITY":"0.00013420","INCLINATION":"53.0545","ARG_OF_PERICENTER":"63.7832","MEAN_ELEMENT_THEORY":"SGP4"},{"RA_OF_ASC_NODE":"214.0222","COUNTRY_CODE":"US","FILE":"3481185","OBJECT_TYPE":"PAYLOAD","TLE_LINE2":"2 45374  53.0540 214.0222 0001266  64.7563 295.3557 15.06383492122665","RCS_SIZE":"LARGE","SITE":"AFETR","NORAD_CAT_ID":"45374","TIME_SYSTEM":"UTC","EPHEMERIS_TYPE":"0","MEAN_MOTION_DOT":"-0.00001825","PERIOD":"95.593","MEAN_MOTION":"15.06383492","MEAN_MOTION_DDOT":"0.0000000000000","OBJECT_NAME":"STARLINK-1300","REV_AT_EPOCH":"12266","ELEMENT_SET_NO":"999","APOAPSIS":"548.141","MEAN_ANOMALY":"295.3557","CLASSIFICATION_TYPE":"U","OBJECT_ID":"2020-019Q","GP_ID":"205360571","REF_FRAME":"TEME","TLE_LINE1":"1 45374U 20019Q   22155.85034522 -.00001825  00000-0 -10370-3 0  9991","DECAY_DATE":null,"EPOCH":"2022-06-04T20:24:29.827008","SEMIMAJOR_AXIS":"6925.399","CENTER_NAME":"EARTH","PERIAPSIS":"546.387","LAUNCH_DATE":"2020-03-18","BSTAR":"-0.00010370000000","ECCENTRICITY":"0.00012660","ARG_OF_PERICENTER":"64.7563","INCLINATION":"53.0540","MEAN_ELEMENT_THEORY":"SGP4"},{"SITE":"AFETR","RCS_SIZE":"LARGE","FILE":"3481313","COUNTRY_CODE":"US","OBJECT_TYPE":"PAYLOAD","TLE_LINE2":"2 45375  53.0524 213.9537 0001416  62.0012 298.1120 15.06395410122662","RA_OF_ASC_NODE":"213.9537","REV_AT_EPOCH":"12266","ELEMENT_SET_NO":"999","MEAN_MOTION":"15.06395410","PERIOD":"95.592","MEAN_MOTION_DDOT":"0.0000000000000","OBJECT_NAME":"STARLINK-1302","EPHEMERIS_TYPE":"0","MEAN_MOTION_DOT":"0.00000754","TIME_SYSTEM":"UTC","NORAD_CAT_ID":"45375","REF_FRAME":"TEME","GP_ID":"205384326","OBJECT_ID":"2020-019R","MEAN_ANOMALY":"298.1120","CLASSIFICATION_TYPE":"U","APOAPSIS":"548.208","MEAN_ELEMENT_THEORY":"SGP4","ECCENTRICITY":"0.00014160","INCLINATION":"53.0524","ARG_OF_PERICENTER":"62.0012","LAUNCH_DATE":"2020-03-18","BSTAR":"0.00006949600000","PERIAPSIS":"546.247","SEMIMAJOR_AXIS":"6925.363","CENTER_NAME":"EARTH","DECAY_DATE":null,"EPOCH":"2022-06-04T20:45:42.211296","TLE_LINE1":"1 45375U 20019R   22155.86507189  .00000754  00000-0  69496-4 0  9999"},{"REF_FRAME":"TEME","GP_ID":"205383080","OBJECT_ID":"2020-019S","MEAN_ANOMALY":"282.0552","CLASSIFICATION_TYPE":"U","APOAPSIS":"548.168","MEAN_ELEMENT_THEORY":"SGP4","ECCENTRICITY":"0.00013650","INCLINATION":"53.0528","ARG_OF_PERICENTER":"78.0590","LAUNCH_DATE":"2020-03-18","BSTAR":"0.00012391000000","PERIAPSIS":"546.277","SEMIMAJOR_AXIS":"6925.358","CENTER_NAME":"EARTH","DECAY_DATE":null,"EPOCH":"2022-06-04T21:12:14.669568","TLE_LINE1":"1 45376U 20019S   22155.88350312  .00001565  00000-0  12391-3 0  9998","SITE":"AFETR","RCS_SIZE":"LARGE","COUNTRY_CODE":"US","FILE":"3481313","OBJECT_TYPE":"PAYLOAD","TLE_LINE2":"2 45376  53.0528 213.8824 0001365  78.0590 282.0552 15.06396988122668","RA_OF_ASC_NODE":"213.8824","REV_AT_EPOCH":"12266","ELEMENT_SET_NO":"999","OBJECT_NAME":"STARLINK-1304","PERIOD":"95.592","MEAN_MOTION_DDOT":"0.0000000000000","MEAN_MOTION":"15.06396988","EPHEMERIS_TYPE":"0","MEAN_MOTION_DOT":"0.00001565","TIME_SYSTEM":"UTC","NORAD_CAT_ID":"45376"},{"TLE_LINE1":"1 45377U 20019T   22155.57753907  .00003947  00000-0  28352-3 0  9992","SEMIMAJOR_AXIS":"6925.263","CENTER_NAME":"EARTH","DECAY_DATE":null,"EPOCH":"2022-06-04T13:51:39.375648","LAUNCH_DATE":"2020-03-18","BSTAR":"0.00028352000000","PERIAPSIS":"546.240","MEAN_ELEMENT_THEORY":"SGP4","ECCENTRICITY":"0.00012820","ARG_OF_PERICENTER":"64.0058","INCLINATION":"53.0531","MEAN_ANOMALY":"296.1063","CLASSIFICATION_TYPE":"U","APOAPSIS":"548.016","OBJECT_ID":"2020-019T","REF_FRAME":"TEME","GP_ID":"205382830","TIME_SYSTEM":"UTC","NORAD_CAT_ID":"45377","EPHEMERIS_TYPE":"0","MEAN_MOTION_DOT":"0.00003947","OBJECT_NAME":"STARLINK-1305","PERIOD":"95.590","MEAN_MOTION_DDOT":"0.0000000000000","MEAN_MOTION":"15.06428004","REV_AT_EPOCH":"12262","ELEMENT_SET_NO":"999","RA_OF_ASC_NODE":"215.2389","COUNTRY_CODE":"US","FILE":"3481313","OBJECT_TYPE":"PAYLOAD","TLE_LINE2":"2 45377  53.0531 215.2389 0001282  64.0058 296.1063 15.06428004122621","RCS_SIZE":"LARGE","SITE":"AFETR"},{"LAUNCH_DATE":"2020-03-18","BSTAR":"0.00010748000000","PERIAPSIS":"546.155","MEAN_ELEMENT_THEORY":"SGP4","ECCENTRICITY":"0.00015410","INCLINATION":"53.0532","ARG_OF_PERICENTER":"64.5906","TLE_LINE1":"1 45378U 20019U   22155.89824185  .00001320  00000-0  10748-3 0  9998","SEMIMAJOR_AXIS":"6925.357","CENTER_NAME":"EARTH","DECAY_DATE":null,"EPOCH":"2022-06-04T21:33:28.095840","REF_FRAME":"TEME","GP_ID":"205384079","MEAN_ANOMALY":"295.5242","CLASSIFICATION_TYPE":"U","APOAPSIS":"548.289","OBJECT_ID":"2020-019U","PERIOD":"95.592","MEAN_MOTION_DDOT":"0.0000000000000","OBJECT_NAME":"STARLINK-1310","MEAN_MOTION":"15.06397266","REV_AT_EPOCH":"12267","ELEMENT_SET_NO":"999","TIME_SYSTEM":"UTC","NORAD_CAT_ID":"45378","EPHEMERIS_TYPE":"0","MEAN_MOTION_DOT":"0.00001320","RCS_SIZE":"LARGE","SITE":"AFETR","RA_OF_ASC_NODE":"213.8058","FILE":"3481313","COUNTRY_CODE":"US","TLE_LINE2":"2 45378  53.0532 213.8058 0001541  64.5906 295.5242 15.06397266122677","OBJECT_TYPE":"PAYLOAD"},{"OBJECT_ID":"2020-019V","APOAPSIS":"548.246","CLASSIFICATION_TYPE":"U","MEAN_ANOMALY":"287.0720","GP_ID":"205383826","REF_FRAME":"TEME","EPOCH":"2022-06-04T20:03:14.031648","DECAY_DATE":null,"CENTER_NAME":"EARTH","SEMIMAJOR_AXIS":"6925.349","TLE_LINE1":"1 45379U 20019V   22155.83557907  .00001445  00000-0  11586-3 0  9997","ARG_OF_PERICENTER":"73.0432","INCLINATION":"53.0541","ECCENTRICITY":"0.00014910","MEAN_ELEMENT_THEORY":"SGP4","PERIAPSIS":"546.181","BSTAR":"0.00011586000000","LAUNCH_DATE":"2020-03-18","OBJECT_TYPE":"PAYLOAD","TLE_LINE2":"2 45379  53.0541 214.0850 0001491  73.0432 287.0720 15.06400017122669","FILE":"3481313","COUNTRY_CODE":"US","RA_OF_ASC_NODE":"214.0850","SITE":"AFETR","RCS_SIZE":"LARGE","MEAN_MOTION_DOT":"0.00001445","EPHEMERIS_TYPE":"0","NORAD_CAT_ID":"45379","TIME_SYSTEM":"UTC","ELEMENT_SET_NO":"999","REV_AT_EPOCH":"12266","MEAN_MOTION_DDOT":"0.0000000000000","PERIOD":"95.592","MEAN_MOTION":"15.06400017","OBJECT_NAME":"STARLINK-1319"}];
